{"version": 0.6, "generator": "Overpass API 0.7.61.5 4133829e", "osm3s": {"timestamp_osm_base": "2023-09-05T19:42:30Z", "copyright": "The data included in this document is from www.openstreetmap.org. The data is made available under ODbL."}, "elements": [{"type": "node", "id": 1977420200, "lat": -32.9345742, "lon": -60.6426679, "tags": {"amenity": "bar", "name": "Flora", "outdoor_seating": "yes"}}, {"type": "node", "id": 1977420679, "lat": -32.9369536, "lon": -60.6389075, "tags": {"amenity": "bar", "name": "Quillagua", "outdoor_seating": "yes"}}, {"type": "node", "id": 1978713628, "lat": -32.8809401, "lon": -60.6870579, "tags": {"addr:housenumber": "3610", "addr:street": "Avenida Eudoro Carrasco", "amenity": "bar", "name": "Mapu Rosario"}}, {"type": "node", "id": 1982374477, "lat": -32.9499695, "lon": -60.6293387}, {"type": "node", "id": 1982374480, "lat": -32.9498088, "lon": -60.6290203}, {"type": "node", "id": 1982374481, "lat": -32.9496404, "lon": -60.6292626}, {"type": "node", "id": 1982374482, "lat": -32.9499041, "lon": -60.6290424}, {"type": "node", "id": 1982374486, "lat": -32.9498764, "lon": -60.629212}, {"type": "node", "id": 1982374500, "lat": -32.949986, "lon": -60.6292373}, {"type": "node", "id": 1990596384, "lat": -32.9497721, "lon": -60.6258027, "tags": {"amenity": "bar", "name": "Sr. Ming"}}, {"type": "node", "id": 1992235792, "lat": -32.9371363, "lon": -60.639506, "tags": {"amenity": "bar", "name": "Quita Pena"}}, {"type": "node", "id": 1992271344, "lat": -32.8894946, "lon": -60.6871878, "tags": {"amenity": "bar", "name": "LongBoard"}}, {"type": "node", "id": 1992721984, "lat": -32.8737033, "lon": -60.6892473, "tags": {"amenity": "bar", "cuisine": "burger;pizza"}}, {"type": "node", "id": 1992731940, "lat": -32.8914549, "lon": -60.6855806, "tags": {"amenity": "bar"}}, {"type": "node", "id": 1994184043, "lat": -32.9457546, "lon": -60.6493964, "tags": {"amenity": "bar", "name": "Queens Bar"}}, {"type": "node", "id": 2005929505, "lat": -32.9570015, "lon": -60.6435643, "tags": {"amenity": "bar", "name": "Club de Pizzas"}}, {"type": "node", "id": 2565613361, "lat": -32.9411331, "lon": -60.6374851, "tags": {"amenity": "bar", "name": "Bar Berlin"}}, {"type": "node", "id": 2565705453, "lat": -32.9420397, "lon": -60.6358481}, {"type": "node", "id": 2565705454, "lat": -32.9418661, "lon": -60.6357957}, {"type": "node", "id": 2565705455, "lat": -32.9418443, "lon": -60.635898}, {"type": "node", "id": 2565705456, "lat": -32.9420179, "lon": -60.6359505}, {"type": "node", "id": 2565722121, "lat": -32.9585871, "lon": -60.6526838}, {"type": "node", "id": 2565722122, "lat": -32.958624, "lon": -60.6525071}, {"type": "node", "id": 2565722123, "lat": -32.95875, "lon": -60.6525444}, {"type": "node", "id": 2565722124, "lat": -32.9587218, "lon": -60.6526795}, {"type": "node", "id": 2565722125, "lat": -32.9586872, "lon": -60.6527135}, {"type": "node", "id": 2570262313, "lat": -32.9557246, "lon": -60.6480675}, {"type": "node", "id": 2570262316, "lat": -32.9557447, "lon": -60.6479676}, {"type": "node", "id": 2570262322, "lat": -32.955764, "lon": -60.6478716}, {"type": "node", "id": 2570262391, "lat": -32.9556698, "lon": -60.6480519}, {"type": "node", "id": 2570262394, "lat": -32.9557092, "lon": -60.6478559}, {"type": "node", "id": 2570308750, "lat": -32.9739458, "lon": -60.6440502}, {"type": "node", "id": 2570308751, "lat": -32.9740301, "lon": -60.644077}, {"type": "node", "id": 2570308752, "lat": -32.9741003, "lon": -60.6437388}, {"type": "node", "id": 2570308753, "lat": -32.974016, "lon": -60.6437121}, {"type": "node", "id": 2659508668, "lat": -32.9409275, "lon": -60.6412895, "tags": {"amenity": "bar", "name": "El Molino"}}, {"type": "node", "id": 2813483964, "lat": -32.9440885, "lon": -60.6806611, "tags": {"amenity": "bar", "internet_access": "wlan", "name": "Roma"}}, {"type": "node", "id": 2813483965, "lat": -32.9464857, "lon": -60.6670121, "tags": {"amenity": "bar", "name": "Wilfredo", "toilets:wheelchair": "yes", "wheelchair": "yes"}}, {"type": "node", "id": 3093482370, "lat": -32.9506589, "lon": -60.6451425, "tags": {"amenity": "bar", "name": "La Esquina"}}, {"type": "node", "id": 3198613305, "lat": -32.9535826, "lon": -60.6356085, "tags": {"addr:housenumber": "1301", "addr:postcode": "S2000", "addr:street": "Francisco Narciso Laprida", "amenity": "bar", "contact:facebook": "baryrestosamsara", "contact:phone": "+54 341 421-7955", "name": "Samsara", "smoking": "outside"}}, {"type": "node", "id": 3605679879, "lat": -32.9435379, "lon": -60.6562265, "tags": {"addr:housenumber": "816", "addr:postcode": "S2000", "addr:street": "Santiago", "amenity": "bar", "cafe": "yes", "description": "Es un espacio que combina venta y servicio integral para bicicletas con cafeter\u00eda y men\u00faes ejecutivos.", "name": "Rondinella", "operator": "Leonardo Gim\u00e9nez", "shop": "bicycle", "source": "http://www.impulsonegocios.com/contenidos/2015/06/19/Editorial_36239.php"}}, {"type": "node", "id": 3725539403, "lat": -32.9583314, "lon": -60.633776, "tags": {"amenity": "bar", "name": "Menggano"}}, {"type": "node", "id": 3725539406, "lat": -32.9589834, "lon": -60.6326035}, {"type": "node", "id": 3725539408, "lat": -32.9592444, "lon": -60.6309085}, {"type": "node", "id": 3731652776, "lat": -32.9644391, "lon": -60.6339718, "tags": {"amenity": "bar"}}, {"type": "node", "id": 3788009046, "lat": -32.9512927, "lon": -60.6488452, "tags": {"addr:housenumber": "1751", "addr:postcode": "S2000", "addr:street": "3 de Febrero", "amenity": "bar", "contact:facebook": "https://www.fb.com/UPAR-Bar-1684050301827297/", "contact:phone": "+54 341 421-4357", "contact:website": "http://www.upar.com.ar/", "internet_access": "wlan", "name": "Restobar Upar", "opening_hours": "Mo-Su 07:00-22:00"}}, {"type": "node", "id": 3960129780, "lat": -32.9645673, "lon": -60.6218024, "tags": {"addr:housenumber": "2010", "addr:postcode": "S2000", "addr:street": "Avenida Manuel Belgrano", "amenity": "bar", "contact:facebook": "underlandBar", "contact:phone": "+54 341 482-3663", "name": "Sunderland Bar", "opening_hours": "Mo-Fr 11:00-24:00; Sa,Su 00:00-02:00,11:00-24:00"}}, {"type": "node", "id": 4034832529, "lat": -32.9435768, "lon": -60.6402259, "tags": {"amenity": "bar", "contact:website": "http://www.barlasede.com.ar/", "name": "La Sede"}}, {"type": "node", "id": 4172003170, "lat": -32.9398321, "lon": -60.6663993, "tags": {"amenity": "bar", "level": "0;1", "name": "La Pecera", "outdoor_seating": "yes"}}, {"type": "node", "id": 4175076603, "lat": -32.9390538, "lon": -60.6709135, "tags": {"amenity": "bar", "name": "Nueva Estaci\u00f3n", "outdoor_seating": "yes"}}, {"type": "node", "id": 4184640658, "lat": -32.9449894, "lon": -60.6379664, "tags": {"addr2:street": "Santa Fe", "addr:street": "Sarmiento", "amenity": "bar", "contact:facebook": "elcairorosario", "contact:phone": "+54 341 449-0714", "contact:website": "https://www.barelcairo.com/", "description": "El Cairo hoy funciona como bar y restaurante, incluyendo un espacio cultural.", "name": "El Cairo", "opening_hours": "Mo-Sa 08:00-00:00; Su 09:00-21:00", "payment:american_express": "yes", "payment:argencard": "yes", "payment:cabal": "yes", "payment:cabal_debito": "yes", "payment:cash": "yes", "payment:lider": "yes", "payment:maestro": "yes", "payment:mastercard": "yes", "payment:naranja": "yes", "payment:nativa": "yes", "payment:visa": "yes", "payment:visa_electron": "yes", "wikidata": "Q5719205", "wikipedia": "es:Bar El Cairo"}}, {"type": "node", "id": 4198899308, "lat": -32.9438034, "lon": -60.6819145, "tags": {"amenity": "bar", "internet_access": "wlan", "name": "Babilonia"}}, {"type": "node", "id": 4199478415, "lat": -32.9398933, "lon": -60.7063359, "tags": {"amenity": "bar", "name": "Revolution", "outdoor_seating": "yes"}}, {"type": "node", "id": 4222455726, "lat": -32.9478027, "lon": -60.6612791, "tags": {"amenity": "bar", "name": "El Gran Chopp"}}, {"type": "node", "id": 4238426368, "lat": -32.9466886, "lon": -60.6672097}, {"type": "node", "id": 4238426369, "lat": -32.9467096, "lon": -60.6670959}, {"type": "node", "id": 4238426370, "lat": -32.9467675, "lon": -60.6670546}, {"type": "node", "id": 4238426371, "lat": -32.9468341, "lon": -60.6672479}, {"type": "node", "id": 4238426372, "lat": -32.9468651, "lon": -60.6670801}, {"type": "node", "id": 4318708875, "lat": -32.9761657, "lon": -60.6617429, "tags": {"amenity": "bar", "name": "Chopper's bar"}}, {"type": "node", "id": 4318791905, "lat": -32.9492302, "lon": -60.6382188, "tags": {"addr:street": "San Luis", "amenity": "bar", "name": "Donal", "outdoor_seating": "yes"}}, {"type": "node", "id": 4469457284, "lat": -32.9319229, "lon": -60.6575807, "tags": {"addr2:street": "G\u00fcemes", "addr:city": "rosario", "addr:housenumber": "98 bis", "addr:postcode": "2000", "addr:street": "Callao", "amenity": "bar", "contact:facebook": "lets.dance.cooperativa", "name": "Lolla Bar", "opening_hours": "Th 19:00-24:00; Fr 00:00-02:00,19:00-24:00; Sa 00:00-05:00,23:00-24:00; Su 00:00-05:00", "outdoor_seating": "yes", "payment:cash": "yes"}}, {"type": "node", "id": 4507148996, "lat": -32.937424, "lon": -60.6396965, "tags": {"addr:housenumber": "1370", "addr:postcode": "S2000", "addr:street": "Jujuy", "amenity": "bar", "contact:facebook": "elcharladero", "name": "El Charladero", "name:es": "El Charladero"}}, {"type": "node", "id": 4513797894, "lat": -32.9339605, "lon": -60.6432472, "tags": {"amenity": "bar", "name": "Los Jardines", "name:es": "Los Jardines", "outdoor_seating": "yes", "wheelchair": "yes"}}, {"type": "node", "id": 4597354958, "lat": -32.9543122, "lon": -60.6438655, "tags": {"amenity": "bar", "name": "Andrea Doria"}}, {"type": "node", "id": 4597355520, "lat": -32.952413, "lon": -60.6424213, "tags": {"amenity": "bar", "name": "Bar Irlanda"}}, {"type": "node", "id": 4597355803, "lat": -32.9532062, "lon": -60.6429355, "tags": {"amenity": "bar", "cuisine": "coffee_shop", "name": "Coffee Time"}}, {"type": "node", "id": 4597375517, "lat": -32.9553495, "lon": -60.6509319}, {"type": "node", "id": 4597378071, "lat": -32.9551332, "lon": -60.6521438, "tags": {"amenity": "bar", "description": "Bar de Cerveza Artesanal", "microbrewery": "yes", "name": "Bar Stuttgart"}}, {"type": "node", "id": 4597378084, "lat": -32.9550223, "lon": -60.6526382, "tags": {"amenity": "bar", "name": "Ninna di Farina"}}, {"type": "node", "id": 4597649392, "lat": -32.8779502, "lon": -60.697195, "tags": {"amenity": "bar"}}, {"type": "node", "id": 4603007763, "lat": -32.9504476, "lon": -60.6536462, "tags": {"addr:postcode": "S2000", "addr:street": "Balcarce", "amenity": "bar"}}, {"type": "node", "id": 4604035449, "lat": -32.9505111, "lon": -60.6533824, "tags": {"addr:postcode": "S2000", "addr:street": "Balcarce", "amenity": "bar"}}, {"type": "node", "id": 4607086223, "lat": -32.9534802, "lon": -60.6549369, "tags": {"amenity": "bar", "name": "Espiria"}}, {"type": "node", "id": 4614488928, "lat": -32.9165236, "lon": -60.6712433, "tags": {"amenity": "bar", "name": "Match Point"}}, {"type": "node", "id": 4756759961, "lat": -32.9185033, "lon": -60.7639361, "tags": {"amenity": "bar"}}, {"type": "node", "id": 4936347655, "lat": -32.9350659, "lon": -60.7024536, "tags": {"addr:postcode": "S2008", "addr:street": "Avenida Eva Per\u00f3n", "amenity": "bar", "name": "G\u00e9nesis"}}, {"type": "node", "id": 4937148536, "lat": -32.9390898, "lon": -60.6734923, "tags": {"amenity": "bar", "outdoor_seating": "no"}}, {"type": "node", "id": 4954936323, "lat": -32.9416508, "lon": -60.6658332, "tags": {"amenity": "bar"}}, {"type": "node", "id": 5003244264, "lat": -32.8751394, "lon": -60.6888548, "tags": {"amenity": "bar", "internet_access": "wlan", "name": "L\u00fapulo", "outdoor_seating": "yes"}}, {"type": "node", "id": 5200802772, "lat": -32.8738184, "lon": -60.6882711}, {"type": "node", "id": 5200802773, "lat": -32.8736517, "lon": -60.6882993}, {"type": "node", "id": 5200802774, "lat": -32.8736436, "lon": -60.6882311}, {"type": "node", "id": 5200802775, "lat": -32.8738103, "lon": -60.688203}, {"type": "node", "id": 5228551653, "lat": -32.9391016, "lon": -60.6730944, "tags": {"amenity": "bar", "indoor": "yes", "name": "El H\u00fangaro"}}, {"type": "node", "id": 5228551654, "lat": -32.9390921, "lon": -60.673141, "tags": {"amenity": "bar", "indoor": "yes", "name": "El P\u00e1jaro"}}, {"type": "node", "id": 5233011088, "lat": -32.9589169, "lon": -60.6306881, "tags": {"addr:housenumber": "388", "addr:street": "Avenida Carlos Pellegrini", "amenity": "bar", "name": "Beer Bros", "outdoor_seating": "yes", "smoking": "outside", "wheelchair": "yes"}}, {"type": "node", "id": 5266435905, "lat": -32.9405879, "lon": -60.7578734, "tags": {"amenity": "bar", "description": "Bar Americano Los Angelitos", "name": "Los Angelitos"}}, {"type": "node", "id": 5284726066, "lat": -32.9385586, "lon": -60.6735756, "tags": {"amenity": "bar", "cuisine": "grill", "name": "Tauro Grill & Bar", "outdoor_seating": "yes", "wheelchair": "limited"}}, {"type": "node", "id": 5307408324, "lat": -32.9485112, "lon": -60.6431837, "tags": {"addr:housenumber": "1016", "addr:postcode": "S2000", "addr:street": "Corrientes", "amenity": "bar", "description": "Restobar", "name": "El Bar", "takeaway": "yes", "toilets": "customers"}}, {"type": "node", "id": 5355501516, "lat": -32.9513898, "lon": -60.6392393, "tags": {"addr:street": "Mendoza", "amenity": "bar", "name": "Oui"}}, {"type": "node", "id": 5355817078, "lat": -32.9589328, "lon": -60.6326383}, {"type": "node", "id": 5355817079, "lat": -32.9590543, "lon": -60.6326142}, {"type": "node", "id": 5355817080, "lat": -32.9590442, "lon": -60.6326987}, {"type": "node", "id": 5355817081, "lat": -32.9590014, "lon": -60.6326893}, {"type": "node", "id": 5355817082, "lat": -32.9589947, "lon": -60.6327134}, {"type": "node", "id": 5355817083, "lat": -32.9589305, "lon": -60.632692}, {"type": "node", "id": 5355817088, "lat": -32.959285, "lon": -60.6309192}, {"type": "node", "id": 5355817089, "lat": -32.959276, "lon": -60.6309673}, {"type": "node", "id": 5355817090, "lat": -32.9592355, "lon": -60.6309566}, {"type": "node", "id": 5355880166, "lat": -32.9553315, "lon": -60.6510312}, {"type": "node", "id": 5355880167, "lat": -32.9552835, "lon": -60.6509149}, {"type": "node", "id": 5355880168, "lat": -32.9552654, "lon": -60.6510142}, {"type": "node", "id": 5357535125, "lat": -32.954992, "lon": -60.6273423}, {"type": "node", "id": 5357658753, "lat": -32.9563698, "lon": -60.6346457}, {"type": "node", "id": 5357658754, "lat": -32.9563444, "lon": -60.6347732}, {"type": "node", "id": 5357658755, "lat": -32.9563874, "lon": -60.6347854}, {"type": "node", "id": 5357658756, "lat": -32.9564323, "lon": -60.6348544}, {"type": "node", "id": 5357658757, "lat": -32.9561781, "lon": -60.634823}, {"type": "node", "id": 5357658758, "lat": -32.956405, "lon": -60.6348473}, {"type": "node", "id": 5357658759, "lat": -32.9562217, "lon": -60.6346038}, {"type": "node", "id": 5357658760, "lat": -32.9561916, "lon": -60.6348512}, {"type": "node", "id": 5357658761, "lat": -32.9564218, "lon": -60.6349113}, {"type": "node", "id": 5357658762, "lat": -32.9550471, "lon": -60.6274174}, {"type": "node", "id": 5357658763, "lat": -32.9549864, "lon": -60.6274053}, {"type": "node", "id": 5357658764, "lat": -32.9550696, "lon": -60.627349}, {"type": "node", "id": 5357658765, "lat": -32.9549762, "lon": -60.6272846}, {"type": "node", "id": 5357658766, "lat": -32.9550423, "lon": -60.6274706}, {"type": "node", "id": 5357658767, "lat": -32.9550749, "lon": -60.6273016}, {"type": "node", "id": 5357658768, "lat": -32.9549515, "lon": -60.6273048}, {"type": "node", "id": 5357658769, "lat": -32.9549301, "lon": -60.6274496}, {"type": "node", "id": 5359425813, "lat": -32.9937908, "lon": -60.6737023}, {"type": "node", "id": 5359425814, "lat": -32.9938729, "lon": -60.6737184}, {"type": "node", "id": 5359425815, "lat": -32.9938744, "lon": -60.673542}, {"type": "node", "id": 5359425816, "lat": -32.9937901, "lon": -60.6735501}, {"type": "node", "id": 5361725323, "lat": -32.9364578, "lon": -60.6527773, "tags": {"addr:housenumber": "2298", "addr:postcode": "S2000", "addr:street": "Salta", "amenity": "bar", "name": "Asia de Cuba"}}, {"type": "node", "id": 5401297012, "lat": -32.890044, "lon": -60.6861015, "tags": {"addr:housenumber": "2272", "addr:postcode": "S2005", "addr:street": "Avenida Eudoro Carrasco", "amenity": "bar", "name": "Chulavista Beach Bar"}}, {"type": "node", "id": 5522743480, "lat": -32.9112614, "lon": -60.6751245, "tags": {"amenity": "bar", "indoor_seating": "yes", "name": "Aqua Bar", "outdoor_seating": "yes", "wheelchair": "yes"}}, {"type": "node", "id": 5790260264, "lat": -32.9108349, "lon": -60.6871155}, {"type": "node", "id": 5790260265, "lat": -32.9108322, "lon": -60.6870062}, {"type": "node", "id": 5790260266, "lat": -32.9109303, "lon": -60.6870026}, {"type": "node", "id": 5790260267, "lat": -32.9109334, "lon": -60.6871229}, {"type": "node", "id": 5790260268, "lat": -32.9108774, "lon": -60.6871451}, {"type": "node", "id": 5836821066, "lat": -32.9406145, "lon": -60.6443616, "tags": {"amenity": "bar", "microbrewery": "yes", "name": "Cervecer\u00eda Cooper"}}, {"type": "node", "id": 5876912653, "lat": -32.9066498, "lon": -60.72086, "tags": {"alt_name": "Lobo Bar del Bosque", "amenity": "bar", "indoor": "room", "indoor_seating": "yes", "level": "0", "name": "Lobo Bar", "opening_hours": "Mo-Su 10:00-21:00", "outdoor_seating": "no", "wheelchair": "yes"}}, {"type": "node", "id": 6167067693, "lat": -32.9364771, "lon": -60.653881, "tags": {"addr:housenumber": "2377", "addr:street": "Salta", "amenity": "bar", "name": "Mosquita Muerta", "opening_hours": "Mo, We-Su 18:00-00:00"}}, {"type": "node", "id": 6579394048, "lat": -32.9334673, "lon": -60.6510016, "tags": {"addr:housenumber": "90 bis", "addr:street": "Bulevar Nicasio Oro\u00f1o", "amenity": "bar", "cuisine": "sushi;italian;mexican;cocktails;sandwich", "delivery": "no", "internet_access": "wlan", "internet_access:fee": "no", "name": "Negroni", "opening_hours": "Mo-Fr 00:00-02:00,11:00-24:00; Sa 00:00-03:00,18:00-24:00; Su 00:00-04:00,10:00-24:00", "outdoor_seating": "sidewalk"}}, {"type": "node", "id": 6579395698, "lat": -32.9353311, "lon": -60.6515126, "tags": {"amenity": "bar", "name": "Patagonia", "opening_hours": "Jan 1 off \"A\u00f1o Nuevo\"", "outdoor_seating": "terrace"}}, {"type": "node", "id": 6653517085, "lat": -32.9426166, "lon": -60.6387669, "tags": {"amenity": "bar", "name": "Olimpo"}}, {"type": "node", "id": 6836014161, "lat": -32.9357415, "lon": -60.6509648, "tags": {"abandoned:amenity": "coffee", "abandoned:name": "Cafe Bar Victoria", "addr:postcode": "S2000", "addr:street": "Bulevar Nicasio Oro\u00f1o", "amenity": "bar", "brewery": "Okcidenta", "cuisine": "burger;pizza", "drink:beer": "yes", "internet_access": "wlan", "name": "Okcidenta", "outdoor_seating": "sidewalk", "source:abandoned": "hector Nicolas Zinni. El Rosario de Satanas. Tomo. p\u00e1g 204."}}, {"type": "node", "id": 6939719517, "lat": -32.9351402, "lon": -60.6594705, "tags": {"amenity": "bar", "name": "Nitro"}}, {"type": "node", "id": 6939719519, "lat": -32.9364009, "lon": -60.6517511, "tags": {"addr:street": "Bulevar Nicasio Oro\u00f1o", "amenity": "bar", "name": "Bounce"}}, {"type": "node", "id": 7024149523, "lat": -32.9399246, "lon": -60.7095749, "tags": {"addr:housenumber": "6430", "addr:street": "Avenida Mendoza", "amenity": "bar", "contact:instagram": "ocio_bar", "contact:phone": "+54 341 458-0284", "cuisine": "burger", "drink:beer": "yes", "name": "Ocio bar"}}, {"type": "node", "id": 7024170917, "lat": -32.9233929, "lon": -60.6641484, "tags": {"amenity": "bar", "name": "Amber"}}, {"type": "node", "id": 7024178599, "lat": -32.9366229, "lon": -60.6532282, "tags": {"addr:housenumber": "2303", "addr:street": "Salta", "amenity": "bar", "cuisine": "burger", "drink:beer": "yes", "name": "No Tap Rosario", "website": "http://ontap.com.ar"}}, {"type": "node", "id": 7351554517, "lat": -32.9322163, "lon": -60.6639748, "tags": {"addr:street": "Brown", "amenity": "bar", "name": "Bar Baltimore"}}, {"type": "node", "id": 7351566134, "lat": -32.9526741, "lon": -60.6479191, "tags": {"addr:street": "9 de julio", "amenity": "bar", "name": "Severt"}}, {"type": "node", "id": 7468275285, "lat": -32.9347577, "lon": -60.6483538, "tags": {"addr:housenumber": "2002", "addr:postcode": "2000", "addr:street": "Almirante Brown", "amenity": "bar", "name": "Harrison", "name:en": "Harrison", "name:es": "Harrison"}}, {"type": "node", "id": 7773875477, "lat": -32.9484898, "lon": -60.6341008, "tags": {"amenity": "bar"}}, {"type": "node", "id": 7827764785, "lat": -32.9332408, "lon": -60.6504933, "tags": {"addr:housenumber": "107 bis", "addr:postcode": "2000", "addr:street": "Bulevar Nicasio Oro\u00f1o", "amenity": "bar", "name": "BEATMEMO", "outdoor_seating": "sidewalk"}}, {"type": "node", "id": 7863104153, "lat": -32.9490222, "lon": -60.6415963, "tags": {"addr:street": "Entre R\u00edos", "amenity": "bar", "name": "Bar 7/11"}}, {"type": "node", "id": 7863122364, "lat": -32.9483659, "lon": -60.6357119, "tags": {"amenity": "bar", "description": "Bar con mesas de pool", "name": "Allison", "opening_hours": "Mo-Su 19:00-23:00"}}, {"type": "node", "id": 8069932230, "lat": -32.9543812, "lon": -60.6442231, "tags": {"amenity": "bar", "name": "El Consultorio"}}, {"type": "node", "id": 8280354275, "lat": -32.9445731, "lon": -60.6448158, "tags": {"amenity": "bar", "drink:beer": "yes", "internet_access": "yes", "name": "Warhole", "outdoor_seating": "sidewalk"}}, {"type": "node", "id": 8280361685, "lat": -32.9550579, "lon": -60.6344331, "tags": {"amenity": "bar", "name": "Bodeg\u00f3n Marbella"}}, {"type": "node", "id": 8280368194, "lat": -32.9315894, "lon": -60.6603432, "tags": {"addr:housenumber": "2901", "addr:street": "G\u00fcemes", "amenity": "bar", "brewery": "Hillbilly's", "contact:instagram": "clubdemaltas", "cuisine": "burger;pizza", "drink:beer": "yes", "name": "Club de Maltas", "opening_hours": "Th-Sa 19:00-24:00"}}, {"type": "node", "id": 8395464318, "lat": -32.9447688, "lon": -60.6391484, "tags": {"amenity": "bar", "name": "Berkey"}}, {"type": "node", "id": 8633648363, "lat": -32.9486711, "lon": -60.6341723, "tags": {"amenity": "bar", "drink:beer": "yes"}}, {"type": "node", "id": 8920978160, "lat": -32.9343125, "lon": -60.6607208, "tags": {"addr:city": "Rosario", "addr:housenumber": "131", "addr:postcode": "2000", "addr:street": "Ricchieri", "amenity": "bar", "name": "Bon Scott"}}, {"type": "node", "id": 8930793748, "lat": -32.9158289, "lon": -60.6735072, "tags": {"amenity": "bar", "name": "Heisenberg"}}, {"type": "node", "id": 8930794317, "lat": -32.9179708, "lon": -60.6735169, "tags": {"addr:housenumber": "796 bis", "addr:street": "Bulevar Nicol\u00e1s Avellaneda", "amenity": "bar", "name": "Ribere\u00f1o"}}, {"type": "node", "id": 9010611497, "lat": -32.9467128, "lon": -60.6396195, "tags": {"addr:street": "Mitre", "amenity": "bar", "name": "Bar Junior"}}, {"type": "node", "id": 9010655787, "lat": -32.9384901, "lon": -60.6507385, "tags": {"amenity": "bar", "name": "La Gintoneria"}}, {"type": "node", "id": 9010661585, "lat": -32.9438921, "lon": -60.6451356, "tags": {"addr:street": "Santa Fe", "amenity": "bar", "name": "Magnolia Bar"}}, {"type": "node", "id": 9196140479, "lat": -32.9496968, "lon": -60.629048}, {"type": "node", "id": 9196140480, "lat": -32.9496761, "lon": -60.6290432}, {"type": "node", "id": 9196140481, "lat": -32.9497361, "lon": -60.6289726}, {"type": "node", "id": 9196140482, "lat": -32.9497043, "lon": -60.6291684}, {"type": "node", "id": 9196140483, "lat": -32.9497101, "lon": -60.6289666}, {"type": "node", "id": 9196140484, "lat": -32.9497818, "lon": -60.6291864}, {"type": "node", "id": 9371272517, "lat": -32.9412434, "lon": -60.6396114, "tags": {"amenity": "bar", "name": "Brooklyn"}}, {"type": "node", "id": 9548162401, "lat": -32.890901, "lon": -60.685959}, {"type": "node", "id": 9548162402, "lat": -32.8906139, "lon": -60.6860596}, {"type": "node", "id": 9548162406, "lat": -32.8904461, "lon": -60.6858024}, {"type": "node", "id": 9548162407, "lat": -32.8906612, "lon": -60.6856254}, {"type": "node", "id": 9548162408, "lat": -32.8908132, "lon": -60.6858869}, {"type": "node", "id": 9666143748, "lat": -32.9957621, "lon": -60.6391581, "tags": {"addr:street": "Olegario Victor Andrade", "amenity": "bar", "name": "iBar Rosario"}}, {"type": "node", "id": 10828213883, "lat": -32.944833, "lon": -60.6388666, "tags": {"addr:city": "Rosario", "addr:housenumber": "1166", "addr:postcode": "S2000", "addr:street": "Santa Fe", "amenity": "bar", "contact:instagram": "quesearockmultiespacio", "name": "Que Sea Rock"}}, {"type": "way", "id": 187593734, "nodes": [1982374481, 1982374477, 1982374500, 1982374486, 1982374482, 1982374480, 9196140484, 9196140482, 9196140481, 9196140483, 9196140479, 9196140480, 1982374481], "tags": {"amenity": "bar", "building": "yes", "name": "VIP"}}, {"type": "way", "id": 250052279, "nodes": [2565705453, 2565705454, 2565705455, 2565705456, 2565705453], "tags": {"amenity": "bar", "building": "yes", "name": "McNamara"}}, {"type": "way", "id": 250054351, "nodes": [2565722121, 2565722122, 2565722123, 2565722124, 2565722125, 2565722121], "tags": {"amenity": "bar", "building": "yes"}}, {"type": "way", "id": 250618752, "nodes": [2570262313, 2570262391, 2570262394, 2570262322, 2570262316, 2570262313], "tags": {"amenity": "bar", "building": "yes"}}, {"type": "way", "id": 250624864, "nodes": [2570308750, 2570308751, 2570308752, 2570308753, 2570308750], "tags": {"amenity": "bar", "building": "yes", "name": "Lido"}}, {"type": "way", "id": 424434611, "nodes": [4238426372, 4238426371, 4238426368, 4238426369, 4238426370, 4238426372], "tags": {"amenity": "bar", "building": "yes", "name": "El Tony"}}, {"type": "way", "id": 536995478, "nodes": [5200802775, 5200802772, 5200802773, 5200802774, 5200802775], "tags": {"amenity": "bar", "building": "yes", "outdoor_seating": "yes"}}, {"type": "way", "id": 555023403, "nodes": [5355817083, 5355817082, 5355817081, 5355817080, 5355817079, 3725539406, 5355817078, 5355817083], "tags": {"addr:street": "Avenida Carlos Pellegrini", "amenity": "bar", "name": "La Tagliatta"}}, {"type": "way", "id": 555023405, "nodes": [5355817090, 3725539408, 5355817088, 5355817089, 5355817090], "tags": {"addr:street": "Avenida Carlos Pellegrini", "amenity": "bar", "building": "yes", "name": "Blanco Hnos."}}, {"type": "way", "id": 555030803, "nodes": [5355880168, 5355880167, 4597375517, 5355880166, 5355880168], "tags": {"addr:street": "Avenida Carlos Pellegrini", "amenity": "bar", "building": "yes", "name": "It's Alive"}}, {"type": "way", "id": 555285341, "nodes": [5357658761, 5357658760, 5357658757, 5357658759, 5357658753, 5357658754, 5357658755, 5357658758, 5357658756, 5357658761], "tags": {"addr:street": "Zeballos", "amenity": "bar", "building": "yes", "name": "Arenhas"}}, {"type": "way", "id": 555285342, "nodes": [5357658769, 5357658768, 5357658765, 5357658767, 5357658764, 5357535125, 5357658763, 5357658762, 5357658766, 5357658769], "tags": {"addr:street": "Crist\u00f3bal Col\u00f3n", "amenity": "bar", "building": "yes", "name": "Martin's Bar"}}, {"type": "way", "id": 555499330, "nodes": [5359425816, 5359425815, 5359425814, 5359425813, 5359425816], "tags": {"addr:street": "Avenida Ovidio Lagos", "amenity": "bar", "building": "yes", "name": "Marietta"}}, {"type": "way", "id": 611632445, "nodes": [5790260264, 5790260265, 5790260266, 5790260267, 5790260268, 5790260264], "tags": {"addr:city": "Rosario", "addr:street": "Bulevar General Jos\u00e9 Rondeau", "amenity": "bar", "building": "yes", "name": "Pinta Alegria", "smoking": "outside"}}, {"type": "way", "id": 1036374590, "nodes": [9548162401, 9548162408, 9548162407, 9548162406, 9548162402, 9548162401], "tags": {"amenity": "bar", "name": "Paradiso", "outdoor_seating": "yes", "wheelchair": "yes"}}]}